{
  "norad_id": 64061,
  "name": "TIANQI-20",
  "history": [
    {
      "epoch": "2026-03-28T21:37:40.400256Z",
      "apogee_km": 904.6194727468337,
      "perigee_km": 889.1517561653327,
      "latitude_deg": 3.138961276847057e-05,
      "longitude_deg": -131.51256492568052,
      "height_km": 889.1521527532109,
      "semi_major_axis_km": 7275.022614456083,
      "eccentricity": 0.00106307,
      "inclination_deg": 44.987,
      "raan_deg": 19.2207,
      "arg_perigee_deg": 358.7513,
      "mean_anomaly_deg": 1.3292,
      "mean_motion_rev_day": 13.99108002
    },
    {
      "epoch": "2026-03-29T04:28:58.789056Z",
      "apogee_km": 904.6061227754826,
      "perigee_km": 889.1627073156242,
      "latitude_deg": -2.082711001777661e-06,
      "longitude_deg": 124.10865253729169,
      "height_km": 889.1610250290772,
      "semi_major_axis_km": 7275.021415045553,
      "eccentricity": 0.0010614,
      "inclination_deg": 44.987,
      "raan_deg": 17.9501,
      "arg_perigee_deg": 0.1387,
      "mean_anomaly_deg": 359.9447,
      "mean_motion_rev_day": 13.99108348
    },
    {
      "epoch": "2026-03-30T04:28:33.129120Z",
      "apogee_km": 904.555744332908,
      "perigee_km": 889.2082187890264,
      "latitude_deg": 9.861317388323269e-07,
      "longitude_deg": 118.7830203702149,
      "height_km": 889.2345035212637,
      "semi_major_axis_km": 7275.0189815609665,
      "eccentricity": 0.00105481,
      "inclination_deg": 44.9871,
      "raan_deg": 13.5029,
      "arg_perigee_deg": 4.9818,
      "mean_anomaly_deg": 355.1118,
      "mean_motion_rev_day": 13.9910905
    },
    {
      "epoch": "2026-03-30T11:19:51.498048Z",
      "apogee_km": 904.5452286578275,
      "perigee_km": 889.2169110849691,
      "latitude_deg": -3.224292822448386e-06,
      "longitude_deg": 14.404350254965776,
      "height_km": 889.2612882399235,
      "semi_major_axis_km": 7275.0180698713975,
      "eccentricity": 0.00105349,
      "inclination_deg": 44.9871,
      "raan_deg": 12.2323,
      "arg_perigee_deg": 6.3749,
      "mean_anomaly_deg": 353.7216,
      "mean_motion_rev_day": 13.99109313
    },
    {
      "epoch": "2026-03-30T19:53:59.457696Z",
      "apogee_km": 904.5241329792898,
      "perigee_km": 889.2361209879609,
      "latitude_deg": 3.174599197638339e-06,
      "longitude_deg": -116.06911946594654,
      "height_km": 889.309257344244,
      "semi_major_axis_km": 7275.017126983625,
      "eccentricity": 0.00105072,
      "inclination_deg": 44.9871,
      "raan_deg": 10.6439,
      "arg_perigee_deg": 8.1153,
      "mean_anomaly_deg": 351.9848,
      "mean_motion_rev_day": 13.99109585
    },
    {
      "epoch": "2026-03-31T11:19:25.774176Z",
      "apogee_km": 904.4914132840167,
      "perigee_km": 889.2653880516518,
      "latitude_deg": 4.503193322736519e-05,
      "longitude_deg": 9.078930831025927,
      "height_km": 889.4081003582138,
      "semi_major_axis_km": 7275.015400667834,
      "eccentricity": 0.00104646,
      "inclination_deg": 44.9872,
      "raan_deg": 7.785,
      "arg_perigee_deg": 11.2726,
      "mean_anomaly_deg": 348.834,
      "mean_motion_rev_day": 13.99110083
    },
    {
      "epoch": "2026-03-31T19:53:33.714816Z",
      "apogee_km": 904.4697600322343,
      "perigee_km": 889.2853496533662,
      "latitude_deg": -1.5085280760182051e-05,
      "longitude_deg": -121.39452558069547,
      "height_km": 889.4757220109083,
      "semi_major_axis_km": 7275.0145548428,
      "eccentricity": 0.0010436,
      "inclination_deg": 44.9871,
      "raan_deg": 6.1966,
      "arg_perigee_deg": 13.0123,
      "mean_anomaly_deg": 347.0977,
      "mean_motion_rev_day": 13.99110327
    },
    {
      "epoch": "2026-04-01T19:53:07.925280Z",
      "apogee_km": 904.420470196018,
      "perigee_km": 889.3306391551096,
      "latitude_deg": -3.3079758364044935e-05,
      "longitude_deg": -126.71963659813821,
      "height_km": 889.6885479917365,
      "semi_major_axis_km": 7275.0125546755635,
      "eccentricity": 0.0010371,
      "inclination_deg": 44.9872,
      "raan_deg": 1.7494,
      "arg_perigee_deg": 17.8628,
      "mean_anomaly_deg": 342.2567,
      "mean_motion_rev_day": 13.99110904
    },
    {
      "epoch": "2026-04-02T19:52:42.049344Z",
      "apogee_km": 904.3687860444616,
      "perigee_km": 889.373539219644,
      "latitude_deg": 1.6123920671045252e-05,
      "longitude_deg": -132.04442022725166,
      "height_km": 889.952791666153,
      "semi_major_axis_km": 7275.0081626320525,
      "eccentricity": 0.0010306,
      "inclination_deg": 44.9872,
      "raan_deg": 357.3021,
      "arg_perigee_deg": 22.8106,
      "mean_anomaly_deg": 337.3183,
      "mean_motion_rev_day": 13.99112171
    },
    {
      "epoch": "2026-04-02T21:35:31.630560Z",
      "apogee_km": 904.3667245094239,
      "perigee_km": 889.3752610388747,
      "latitude_deg": 2.3151631403052278e-05,
      "longitude_deg": -158.1390837216012,
      "height_km": 889.9731679361863,
      "semi_major_axis_km": 7275.007992774149,
      "eccentricity": 0.00103034,
      "inclination_deg": 44.9872,
      "raan_deg": 356.9844,
      "arg_perigee_deg": 23.1805,
      "mean_anomaly_deg": 336.9491,
      "mean_motion_rev_day": 13.9911222
    },
    {
      "epoch": "2026-04-03T19:52:16.124160Z",
      "apogee_km": 904.3224489789118,
      "perigee_km": 889.4130542409612,
      "latitude_deg": 3.5595937157557754e-07,
      "longitude_deg": -137.3689634856856,
      "height_km": 890.2630303455373,
      "semi_major_axis_km": 7275.004751609936,
      "eccentricity": 0.0010247,
      "inclination_deg": 44.9871,
      "raan_deg": 352.8549,
      "arg_perigee_deg": 27.7678,
      "mean_anomaly_deg": 332.37,
      "mean_motion_rev_day": 13.99113155
    },
    {
      "epoch": "2026-04-04T19:51:50.154912Z",
      "apogee_km": 904.2780968048373,
      "perigee_km": 889.4545500330387,
      "latitude_deg": -3.380981697921658e-05,
      "longitude_deg": -142.69344180806698,
      "height_km": 890.6266918433225,
      "semi_major_axis_km": 7275.003323418938,
      "eccentricity": 0.0010188,
      "inclination_deg": 44.9872,
      "raan_deg": 348.4076,
      "arg_perigee_deg": 32.8044,
      "mean_anomaly_deg": 327.3419,
      "mean_motion_rev_day": 13.99113567
    },
    {
      "epoch": "2026-04-05T13:00:05.853024Z",
      "apogee_km": 904.2475034925365,
      "perigee_km": 889.4807062498694,
      "latitude_deg": 2.3620252792596783e-05,
      "longitude_deg": -43.63911466831157,
      "height_km": 890.908125247306,
      "semi_major_axis_km": 7275.001104871203,
      "eccentricity": 0.0010149,
      "inclination_deg": 44.9871,
      "raan_deg": 345.2311,
      "arg_perigee_deg": 36.3702,
      "mean_anomaly_deg": 323.7819,
      "mean_motion_rev_day": 13.99114207
    },
    {
      "epoch": "2026-04-05T19:51:24.126912Z",
      "apogee_km": 904.2328285706653,
      "perigee_km": 889.4951315852231,
      "latitude_deg": -3.8656746301197236e-05,
      "longitude_deg": -148.0175463285759,
      "height_km": 891.0356699614202,
      "semi_major_axis_km": 7275.0009800779435,
      "eccentricity": 0.0010129,
      "inclination_deg": 44.9871,
      "raan_deg": 343.9604,
      "arg_perigee_deg": 37.8692,
      "mean_anomaly_deg": 322.2851,
      "mean_motion_rev_day": 13.99114243
    },
    {
      "epoch": "2026-04-06T02:42:42.398208Z",
      "apogee_km": 904.226775362331,
      "perigee_km": 889.4998467326723,
      "latitude_deg": -2.820720957164515e-05,
      "longitude_deg": 107.60440513968666,
      "height_km": 891.152055083394,
      "semi_major_axis_km": 7275.000311047502,
      "eccentricity": 0.00101216,
      "inclination_deg": 44.987,
      "raan_deg": 342.69,
      "arg_perigee_deg": 39.2819,
      "mean_anomaly_deg": 320.8746,
      "mean_motion_rev_day": 13.99114436
    },
    {
      "epoch": "2026-04-07T12:59:13.685568Z",
      "apogee_km": 904.1714636009547,
      "perigee_km": 889.549736924092,
      "latitude_deg": 6.32941723487172e-06,
      "longitude_deg": -54.28676719546391,
      "height_km": 891.8173673077288,
      "semi_major_axis_km": 7274.9976002625235,
      "eccentricity": 0.00100493,
      "inclination_deg": 44.9869,
      "raan_deg": 336.3368,
      "arg_perigee_deg": 46.53,
      "mean_anomaly_deg": 313.6367,
      "mean_motion_rev_day": 13.99115218
    },
    {
      "epoch": "2026-04-07T19:50:31.930944Z",
      "apogee_km": 904.1614824981862,
      "perigee_km": 889.5591079272344,
      "latitude_deg": 4.163588515196822e-05,
      "longitude_deg": -158.66498294139194,
      "height_km": 891.964837131577,
      "semi_major_axis_km": 7274.99729521271,
      "eccentricity": 0.0010036,
      "inclination_deg": 44.9868,
      "raan_deg": 335.0661,
      "arg_perigee_deg": 48.0415,
      "mean_anomaly_deg": 312.1272,
      "mean_motion_rev_day": 13.99115306
    }
  ]
}